{
  "type": "FeatureCollection",
  "features": [
    {
      "type": "Feature",
      "properties": {
        "norad_id": 29486,
        "name": "GPS BIIRM-2 (PRN 31)",
        "group": "gps-ops",
        "lat": 45.92270354945191,
        "lon": -68.66557171076235,
        "alt_km": 20059.65727706368,
        "timestamp": "2025-12-21T03:56:51.096248+00:00",
        "meta_object_name": "GPS BIIRM-2 (PRN 31)",
        "meta_object_id": "2006-042A",
        "meta_epoch": "2025-12-20T12:29:34.727712",
        "meta_mean_motion": 2.0055388,
        "meta_eccentricity": 0.01073051,
        "meta_inclination": 54.695,
        "meta_ra_of_asc_node": 158.4322,
        "meta_arg_of_pericenter": 52.1429,
        "meta_mean_anomaly": 320.0368,
        "meta_ephemeris_type": 0,
        "meta_classification_type": "U",
        "meta_norad_cat_id": 29486,
        "meta_element_set_no": 999,
        "meta_rev_at_epoch": 14081,
        "meta_bstar": 0,
        "meta_mean_motion_dot": 6.8e-07,
        "meta_mean_motion_ddot": 0,
        "tle_line1": "1 29486U 06042A   25354.52054083  .00000068  00000+0  00000+0 0  9999",
        "tle_line2": "2 29486  54.6950 158.4322 0107305  52.1429 320.0368  2.00553880140811"
      },
      "geometry": {
        "type": "Point",
        "coordinates": [
          -68.66557171076235,
          45.92270354945191
        ]
      }
    },
    {
      "type": "Feature",
      "properties": {
        "norad_id": 29601,
        "name": "GPS BIIRM-3 (PRN 12)",
        "group": "gps-ops",
        "lat": 2.999912391918378,
        "lon": 38.971379089057486,
        "alt_km": 20174.290973181134,
        "timestamp": "2025-12-21T03:56:51.096259+00:00",
        "meta_object_name": "GPS BIIRM-3 (PRN 12)",
        "meta_object_id": "2006-052A",
        "meta_epoch": "2025-12-19T22:13:29.754912",
        "meta_mean_motion": 2.00574126,
        "meta_eccentricity": 0.00879643,
        "meta_inclination": 54.9691,
        "meta_ra_of_asc_node": 221.1129,
        "meta_arg_of_pericenter": 87.52,
        "meta_mean_anomaly": 273.5849,
        "meta_ephemeris_type": 0,
        "meta_classification_type": "U",
        "meta_norad_cat_id": 29601,
        "meta_element_set_no": 999,
        "meta_rev_at_epoch": 13981,
        "meta_bstar": 0,
        "meta_mean_motion_dot": 7.6e-07,
        "meta_mean_motion_ddot": 0,
        "tle_line1": "1 29601U 06052A   25353.92603883  .00000076  00000+0  00000+0 0  9999",
        "tle_line2": "2 29601  54.9691 221.1129 0087964  87.5200 273.5849  2.00574126139815"
      },
      "geometry": {
        "type": "Point",
        "coordinates": [
          38.971379089057486,
          2.999912391918378
        ]
      }
    },
    {
      "type": "Feature",
      "properties": {
        "norad_id": 32260,
        "name": "GPS BIIRM-4 (PRN 15)",
        "group": "gps-ops",
        "lat": -35.81771882256403,
        "lon": 55.77300130342353,
        "alt_km": 20471.53129596159,
        "timestamp": "2025-12-21T03:56:51.096269+00:00",
        "meta_object_name": "GPS BIIRM-4 (PRN 15)",
        "meta_object_id": "2007-047A",
        "meta_epoch": "2025-12-19T17:36:20.095488",
        "meta_mean_motion": 2.00564284,
        "meta_eccentricity": 0.01640625,
        "meta_inclination": 53.9598,
        "meta_ra_of_asc_node": 87.4696,
        "meta_arg_of_pericenter": 85.3303,
        "meta_mean_anomaly": 276.5412,
        "meta_ephemeris_type": 0,
        "meta_classification_type": "U",
        "meta_norad_cat_id": 32260,
        "meta_element_set_no": 999,
        "meta_rev_at_epoch": 13321,
        "meta_bstar": 0,
        "meta_mean_motion_dot": -3.5e-07,
        "meta_mean_motion_ddot": 0,
        "tle_line1": "1 32260U 07047A   25353.73356592 -.00000035  00000+0  00000+0 0  9996",
        "tle_line2": "2 32260  53.9598  87.4696 0164062  85.3303 276.5412  2.00564284133213"
      },
      "geometry": {
        "type": "Point",
        "coordinates": [
          55.77300130342353,
          -35.81771882256403
        ]
      }
    },
    {
      "type": "Feature",
      "properties": {
        "norad_id": 32384,
        "name": "GPS BIIRM-5 (PRN 29)",
        "group": "gps-ops",
        "lat": 54.790488599808306,
        "lon": 1.349228079707262,
        "alt_km": 20156.44692024188,
        "timestamp": "2025-12-21T03:56:51.096280+00:00",
        "meta_object_name": "GPS BIIRM-5 (PRN 29)",
        "meta_object_id": "2007-062A",
        "meta_epoch": "2025-12-19T04:08:10.010976",
        "meta_mean_motion": 2.00577702,
        "meta_eccentricity": 0.00322663,
        "meta_inclination": 55.1765,
        "meta_ra_of_asc_node": 281.388,
        "meta_arg_of_pericenter": 162.2119,
        "meta_mean_anomaly": 283.9132,
        "meta_ephemeris_type": 0,
        "meta_classification_type": "U",
        "meta_norad_cat_id": 32384,
        "meta_element_set_no": 999,
        "meta_rev_at_epoch": 13190,
        "meta_bstar": 0,
        "meta_mean_motion_dot": -3.8e-07,
        "meta_mean_motion_ddot": 0,
        "tle_line1": "1 32384U 07062A   25353.17233809 -.00000038  00000+0  00000+0 0  9996",
        "tle_line2": "2 32384  55.1765 281.3880 0032266 162.2119 283.9132  2.00577702131904"
      },
      "geometry": {
        "type": "Point",
        "coordinates": [
          1.349228079707262,
          54.790488599808306
        ]
      }
    },
    {
      "type": "Feature",
      "properties": {
        "norad_id": 32711,
        "name": "GPS BIIRM-6 (PRN 07)",
        "group": "gps-ops",
        "lat": 8.617801090615725,
        "lon": 163.24329273963778,
        "alt_km": 20486.778933129604,
        "timestamp": "2025-12-21T03:56:51.096290+00:00",
        "meta_object_name": "GPS BIIRM-6 (PRN 07)",
        "meta_object_id": "2008-012A",
        "meta_epoch": "2025-12-19T15:41:26.858112",
        "meta_mean_motion": 2.00565937,
        "meta_eccentricity": 0.0202735,
        "meta_inclination": 54.4779,
        "meta_ra_of_asc_node": 157.0969,
        "meta_arg_of_pericenter": 245.0276,
        "meta_mean_anomaly": 112.8468,
        "meta_ephemeris_type": 0,
        "meta_classification_type": "U",
        "meta_norad_cat_id": 32711,
        "meta_element_set_no": 999,
        "meta_rev_at_epoch": 13015,
        "meta_bstar": 0,
        "meta_mean_motion_dot": 6.7e-07,
        "meta_mean_motion_ddot": 0,
        "tle_line1": "1 32711U 08012A   25353.65378308  .00000067  00000+0  00000+0 0  9994",
        "tle_line2": "2 32711  54.4779 157.0969 0202735 245.0276 112.8468  2.00565937130151"
      },
      "geometry": {
        "type": "Point",
        "coordinates": [
          163.24329273963778,
          8.617801090615725
        ]
      }
    },
    {
      "type": "Feature",
      "properties": {
        "norad_id": 35752,
        "name": "GPS BIIRM-8 (PRN 05)",
        "group": "gps-ops",
        "lat": 22.984315348470684,
        "lon": 51.03495665681751,
        "alt_km": 20097.3939567531,
        "timestamp": "2025-12-21T03:56:51.096301+00:00",
        "meta_object_name": "GPS BIIRM-8 (PRN 05)",
        "meta_object_id": "2009-043A",
        "meta_epoch": "2025-12-20T02:09:52.509312",
        "meta_mean_motion": 2.00565329,
        "meta_eccentricity": 0.00516467,
        "meta_inclination": 56.096,
        "meta_ra_of_asc_node": 34.4932,
        "meta_arg_of_pericenter": 81.7821,
        "meta_mean_anomaly": 251.1308,
        "meta_ephemeris_type": 0,
        "meta_classification_type": "U",
        "meta_norad_cat_id": 35752,
        "meta_element_set_no": 999,
        "meta_rev_at_epoch": 11976,
        "meta_bstar": 0,
        "meta_mean_motion_dot": -6.1e-07,
        "meta_mean_motion_ddot": 0,
        "tle_line1": "1 35752U 09043A   25354.09019108 -.00000061  00000+0  00000+0 0  9991",
        "tle_line2": "2 35752  56.0960  34.4932 0051646  81.7821 251.1308  2.00565329119760"
      },
      "geometry": {
        "type": "Point",
        "coordinates": [
          51.03495665681751,
          22.984315348470684
        ]
      }
    },
    {
      "type": "Feature",
      "properties": {
        "norad_id": 36585,
        "name": "GPS BIIF-1  (PRN 25)",
        "group": "gps-ops",
        "lat": 25.41281762426583,
        "lon": 15.773699091445962,
        "alt_km": 20134.382999183446,
        "timestamp": "2025-12-21T03:56:51.096311+00:00",
        "meta_object_name": "GPS BIIF-1  (PRN 25)",
        "meta_object_id": "2010-022A",
        "meta_epoch": "2025-12-20T02:58:58.243008",
        "meta_mean_motion": 2.00553637,
        "meta_eccentricity": 0.01264155,
        "meta_inclination": 54.299,
        "meta_ra_of_asc_node": 215.7761,
        "meta_arg_of_pericenter": 65.1663,
        "meta_mean_anomaly": 50.4936,
        "meta_ephemeris_type": 0,
        "meta_classification_type": "U",
        "meta_norad_cat_id": 36585,
        "meta_element_set_no": 999,
        "meta_rev_at_epoch": 11400,
        "meta_bstar": 0,
        "meta_mean_motion_dot": 8e-07,
        "meta_mean_motion_ddot": 0,
        "tle_line1": "1 36585U 10022A   25354.12428522  .00000080  00000+0  00000+0 0  9993",
        "tle_line2": "2 36585  54.2990 215.7761 0126415  65.1663  50.4936  2.00553637114007"
      },
      "geometry": {
        "type": "Point",
        "coordinates": [
          15.773699091445962,
          25.41281762426583
        ]
      }
    }
  ]
}